{
  "type": "FeatureCollection",
  "features": [
    {
      "type": "Feature",
      "properties": {
        "norad_id": 66596,
        "name": "STARLINK-35811",
        "group": "last-30-days",
        "lat": -3.933318114596079,
        "lon": 66.95032218731106,
        "alt_km": 347.90013552887467,
        "timestamp": "2025-12-04T07:39:35.000192+00:00",
        "meta_object_name": "STARLINK-35811",
        "meta_object_id": "2025-270J",
        "meta_epoch": "2025-12-03T08:00:01.999872",
        "meta_mean_motion": 15.77481419,
        "meta_eccentricity": 0.00017091,
        "meta_inclination": 42.9988,
        "meta_ra_of_asc_node": 248.7061,
        "meta_arg_of_pericenter": 274.7998,
        "meta_mean_anomaly": 72.0379,
        "meta_ephemeris_type": 0,
        "meta_classification_type": "U",
        "meta_norad_cat_id": 66596,
        "meta_element_set_no": 999,
        "meta_rev_at_epoch": 299,
        "meta_bstar": -0.011012002,
        "meta_mean_motion_dot": -0.01671161,
        "meta_mean_motion_ddot": 0,
        "tle_line1": "1 66596U 25270J   25337.33335648 -.01671161  00000+0 -11012-1 0  9993",
        "tle_line2": "2 66596  42.9988 248.7061 0001709 274.7998  72.0379 15.77481419  2990"
      },
      "geometry": {
        "type": "Point",
        "coordinates": [
          66.95032218731106,
          -3.933318114596079
        ]
      }
    },
    {
      "type": "Feature",
      "properties": {
        "norad_id": 66597,
        "name": "STARLINK-35820",
        "group": "last-30-days",
        "lat": -13.35079389614655,
        "lon": 77.4368821432052,
        "alt_km": 340.78844550960184,
        "timestamp": "2025-12-04T07:39:35.000201+00:00",
        "meta_object_name": "STARLINK-35820",
        "meta_object_id": "2025-270K",
        "meta_epoch": "2025-12-03T11:03:46.188000",
        "meta_mean_motion": 15.77552045,
        "meta_eccentricity": 0.00027602,
        "meta_inclination": 42.9994,
        "meta_ra_of_asc_node": 247.9083,
        "meta_arg_of_pericenter": 345.9506,
        "meta_mean_anomaly": 14.1287,
        "meta_ephemeris_type": 0,
        "meta_classification_type": "U",
        "meta_norad_cat_id": 66597,
        "meta_element_set_no": 999,
        "meta_rev_at_epoch": 300,
        "meta_bstar": -0.00050035314,
        "meta_mean_motion_dot": -0.00085551,
        "meta_mean_motion_ddot": 0,
        "tle_line1": "1 66597U 25270K   25337.46095125 -.00085551  00000+0 -50035-3 0  9992",
        "tle_line2": "2 66597  42.9994 247.9083 0002760 345.9506  14.1287 15.77552045  3009"
      },
      "geometry": {
        "type": "Point",
        "coordinates": [
          77.4368821432052,
          -13.35079389614655
        ]
      }
    },
    {
      "type": "Feature",
      "properties": {
        "norad_id": 66598,
        "name": "STARLINK-35981",
        "group": "last-30-days",
        "lat": -8.551605037154683,
        "lon": 71.98828494654697,
        "alt_km": 354.75848478964326,
        "timestamp": "2025-12-04T07:39:35.000210+00:00",
        "meta_object_name": "STARLINK-35981",
        "meta_object_id": "2025-270L",
        "meta_epoch": "2025-12-03T18:40:28.685856",
        "meta_mean_motion": 15.76890341,
        "meta_eccentricity": 0.00095128,
        "meta_inclination": 43,
        "meta_ra_of_asc_node": 245.987,
        "meta_arg_of_pericenter": 351.9264,
        "meta_mean_anomaly": 8.1451,
        "meta_ephemeris_type": 0,
        "meta_classification_type": "U",
        "meta_norad_cat_id": 66598,
        "meta_element_set_no": 999,
        "meta_rev_at_epoch": 278,
        "meta_bstar": -0.015966954,
        "meta_mean_motion_dot": -0.02319445,
        "meta_mean_motion_ddot": 0,
        "tle_line1": "1 66598U 25270L   25337.77810979 -.02319445  00000+0 -15967-1 0  9996",
        "tle_line2": "2 66598  43.0000 245.9870 0009512 351.9264   8.1451 15.76890341  2785"
      },
      "geometry": {
        "type": "Point",
        "coordinates": [
          71.98828494654697,
          -8.551605037154683
        ]
      }
    },
    {
      "type": "Feature",
      "properties": {
        "norad_id": 66599,
        "name": "STARLINK-35930",
        "group": "last-30-days",
        "lat": -9.004235665177195,
        "lon": 72.49112440226241,
        "alt_km": 345.92810878285036,
        "timestamp": "2025-12-04T07:39:35.000220+00:00",
        "meta_object_name": "STARLINK-35930",
        "meta_object_id": "2025-270M",
        "meta_epoch": "2025-12-03T18:40:26.436864",
        "meta_mean_motion": 15.76217691,
        "meta_eccentricity": 0.00028669,
        "meta_inclination": 42.9984,
        "meta_ra_of_asc_node": 245.9868,
        "meta_arg_of_pericenter": 319.5998,
        "meta_mean_anomaly": 40.4658,
        "meta_ephemeris_type": 0,
        "meta_classification_type": "U",
        "meta_norad_cat_id": 66599,
        "meta_element_set_no": 999,
        "meta_rev_at_epoch": 294,
        "meta_bstar": -0.0051105059,
        "meta_mean_motion_dot": -0.00757535,
        "meta_mean_motion_ddot": 0,
        "tle_line1": "1 66599U 25270M   25337.77808376 -.00757535  00000+0 -51105-2 0  9994",
        "tle_line2": "2 66599  42.9984 245.9868 0002866 319.5998  40.4658 15.76217691  2948"
      },
      "geometry": {
        "type": "Point",
        "coordinates": [
          72.49112440226241,
          -9.004235665177195
        ]
      }
    },
    {
      "type": "Feature",
      "properties": {
        "norad_id": 66600,
        "name": "STARLINK-35980",
        "group": "last-30-days",
        "lat": -13.350795283089507,
        "lon": 77.43688376683723,
        "alt_km": 340.78844561883307,
        "timestamp": "2025-12-04T07:39:35.000233+00:00",
        "meta_object_name": "STARLINK-35980",
        "meta_object_id": "2025-270N",
        "meta_epoch": "2025-12-03T11:03:46.188000",
        "meta_mean_motion": 15.77552045,
        "meta_eccentricity": 0.00027602,
        "meta_inclination": 42.9994,
        "meta_ra_of_asc_node": 247.9083,
        "meta_arg_of_pericenter": 345.9506,
        "meta_mean_anomaly": 14.1287,
        "meta_ephemeris_type": 0,
        "meta_classification_type": "U",
        "meta_norad_cat_id": 66600,
        "meta_element_set_no": 999,
        "meta_rev_at_epoch": 279,
        "meta_bstar": -0.00050035388,
        "meta_mean_motion_dot": -0.00085551,
        "meta_mean_motion_ddot": 0,
        "tle_line1": "1 66600U 25270N   25337.46095125 -.00085551  00000+0 -50035-3 0  9997",
        "tle_line2": "2 66600  42.9994 247.9083 0002760 345.9506  14.1287 15.77552045  2799"
      },
      "geometry": {
        "type": "Point",
        "coordinates": [
          77.43688376683723,
          -13.350795283089507
        ]
      }
    },
    {
      "type": "Feature",
      "properties": {
        "norad_id": 66601,
        "name": "STARLINK-35978",
        "group": "last-30-days",
        "lat": -12.534798348296388,
        "lon": 76.49154479702389,
        "alt_km": 338.4054842814867,
        "timestamp": "2025-12-04T07:39:35.000241+00:00",
        "meta_object_name": "STARLINK-35978",
        "meta_object_id": "2025-270P",
        "meta_epoch": "2025-12-03T18:39:27.405792",
        "meta_mean_motion": 15.76369941,
        "meta_eccentricity": 0.00054388,
        "meta_inclination": 42.9974,
        "meta_ra_of_asc_node": 245.9815,
        "meta_arg_of_pericenter": 235.9116,
        "meta_mean_anomaly": 124.1238,
        "meta_ephemeris_type": 0,
        "meta_classification_type": "U",
        "meta_norad_cat_id": 66601,
        "meta_element_set_no": 999,
        "meta_rev_at_epoch": 278,
        "meta_bstar": 0.0017194643,
        "meta_mean_motion_dot": 0.00289478,
        "meta_mean_motion_ddot": 0,
        "tle_line1": "1 66601U 25270P   25337.77740053  .00289478  00000+0  17195-2 0  9990",
        "tle_line2": "2 66601  42.9974 245.9815 0005438 235.9116 124.1238 15.76369941  2786"
      },
      "geometry": {
        "type": "Point",
        "coordinates": [
          76.49154479702389,
          -12.534798348296388
        ]
      }
    },
    {
      "type": "Feature",
      "properties": {
        "norad_id": 66602,
        "name": "STARLINK-36050",
        "group": "last-30-days",
        "lat": -15.816676594648234,
        "lon": 80.37298414642237,
        "alt_km": 341.34318680149954,
        "timestamp": "2025-12-04T07:39:35.000252+00:00",
        "meta_object_name": "STARLINK-36050",
        "meta_object_id": "2025-270Q",
        "meta_epoch": "2025-12-03T11:02:45.965472",
        "meta_mean_motion": 15.77499641,
        "meta_eccentricity": 0.00028515,
        "meta_inclination": 42.9978,
        "meta_ra_of_asc_node": 247.9037,
        "meta_arg_of_pericenter": 352.3597,
        "meta_mean_anomaly": 7.7229,
        "meta_ephemeris_type": 0,
        "meta_classification_type": "U",
        "meta_norad_cat_id": 66602,
        "meta_element_set_no": 999,
        "meta_rev_at_epoch": 279,
        "meta_bstar": -0.00057894064,
        "meta_mean_motion_dot": -0.00098533,
        "meta_mean_motion_ddot": 0,
        "tle_line1": "1 66602U 25270Q   25337.46025423 -.00098533  00000+0 -57894-3 0  9997",
        "tle_line2": "2 66602  42.9978 247.9037 0002851 352.3597   7.7229 15.77499641  2791"
      },
      "geometry": {
        "type": "Point",
        "coordinates": [
          80.37298414642237,
          -15.816676594648234
        ]
      }
    }
  ]
}